{
  "type": "FeatureCollection",
  "features": [
    {
      "type": "Feature",
      "properties": {
        "norad_id": 34425,
        "name": "COSMOS 2251 DEB",
        "group": "cosmos-2251-debris",
        "lat": 45.907666941323455,
        "lon": -171.41498405014386,
        "alt_km": 665.447075407471,
        "timestamp": "2025-12-27T17:24:57.801990+00:00",
        "meta_object_name": "COSMOS 2251 DEB",
        "meta_object_id": "1993-036RS",
        "meta_epoch": "2025-12-27T11:53:26.238048",
        "meta_mean_motion": 14.62207492,
        "meta_eccentricity": 0.0023984,
        "meta_inclination": 74.0192,
        "meta_ra_of_asc_node": 26.2316,
        "meta_arg_of_pericenter": 148.3855,
        "meta_mean_anomaly": 211.8758,
        "meta_ephemeris_type": 0,
        "meta_classification_type": "U",
        "meta_norad_cat_id": 34425,
        "meta_element_set_no": 999,
        "meta_rev_at_epoch": 88956,
        "meta_bstar": 0.00059685,
        "meta_mean_motion_dot": 2.989e-05,
        "meta_mean_motion_ddot": 0,
        "tle_line1": "1 34425U 93036RS  25361.49544257  .00002989  00000+0  59685-3 0  9999",
        "tle_line2": "2 34425  74.0192  26.2316 0023984 148.3855 211.8758 14.62207492889568"
      },
      "geometry": {
        "type": "Point",
        "coordinates": [
          -171.41498405014386,
          45.907666941323455
        ]
      }
    },
    {
      "type": "Feature",
      "properties": {
        "norad_id": 34429,
        "name": "COSMOS 2251 DEB",
        "group": "cosmos-2251-debris",
        "lat": -35.76493020537508,
        "lon": 123.3042147469404,
        "alt_km": 416.4885709240716,
        "timestamp": "2025-12-27T17:24:57.802000+00:00",
        "meta_object_name": "COSMOS 2251 DEB",
        "meta_object_id": "1993-036RW",
        "meta_epoch": "2025-12-27T10:04:31.868256",
        "meta_mean_motion": 15.4859688,
        "meta_eccentricity": 0.0015117,
        "meta_inclination": 73.9678,
        "meta_ra_of_asc_node": 135.9304,
        "meta_arg_of_pericenter": 342.0085,
        "meta_mean_anomaly": 76.207,
        "meta_ephemeris_type": 0,
        "meta_classification_type": "U",
        "meta_norad_cat_id": 34429,
        "meta_element_set_no": 999,
        "meta_rev_at_epoch": 89675,
        "meta_bstar": 0.0061312,
        "meta_mean_motion_dot": 0.00343279,
        "meta_mean_motion_ddot": 0,
        "tle_line1": "1 34429U 93036RW  25361.41981329  .00343279  00000+0  61312-2 0  9999",
        "tle_line2": "2 34429  73.9678 135.9304 0015117 342.0085  76.2070 15.48596880896757"
      },
      "geometry": {
        "type": "Point",
        "coordinates": [
          123.3042147469404,
          -35.76493020537508
        ]
      }
    },
    {
      "type": "Feature",
      "properties": {
        "norad_id": 34430,
        "name": "COSMOS 2251 DEB",
        "group": "cosmos-2251-debris",
        "lat": 38.18443208835458,
        "lon": 82.71527194036058,
        "alt_km": 796.7031461721726,
        "timestamp": "2025-12-27T17:24:57.802010+00:00",
        "meta_object_name": "COSMOS 2251 DEB",
        "meta_object_id": "1993-036RX",
        "meta_epoch": "2025-12-27T11:45:56.088864",
        "meta_mean_motion": 14.3967709,
        "meta_eccentricity": 0.0060984,
        "meta_inclination": 74.0517,
        "meta_ra_of_asc_node": 276.1464,
        "meta_arg_of_pericenter": 342.4065,
        "meta_mean_anomaly": 17.4976,
        "meta_ephemeris_type": 0,
        "meta_classification_type": "U",
        "meta_norad_cat_id": 34430,
        "meta_element_set_no": 999,
        "meta_rev_at_epoch": 88167,
        "meta_bstar": 0.0005086,
        "meta_mean_motion_dot": 1.6e-05,
        "meta_mean_motion_ddot": 0,
        "tle_line1": "1 34430U 93036RX  25361.49023251  .00001600  00000+0  50860-3 0  9996",
        "tle_line2": "2 34430  74.0517 276.1464 0060984 342.4065  17.4976 14.39677090881671"
      },
      "geometry": {
        "type": "Point",
        "coordinates": [
          82.71527194036058,
          38.18443208835458
        ]
      }
    },
    {
      "type": "Feature",
      "properties": {
        "norad_id": 34431,
        "name": "COSMOS 2251 DEB",
        "group": "cosmos-2251-debris",
        "lat": 2.9018069265295297,
        "lon": -32.75619877158358,
        "alt_km": 764.6926549537575,
        "timestamp": "2025-12-27T17:24:57.802021+00:00",
        "meta_object_name": "COSMOS 2251 DEB",
        "meta_object_id": "1993-036RY",
        "meta_epoch": "2025-12-27T09:52:29.800128",
        "meta_mean_motion": 14.28827205,
        "meta_eccentricity": 0.0067577,
        "meta_inclination": 74.0743,
        "meta_ra_of_asc_node": 148.6417,
        "meta_arg_of_pericenter": 130.4053,
        "meta_mean_anomaly": 230.302,
        "meta_ephemeris_type": 0,
        "meta_classification_type": "U",
        "meta_norad_cat_id": 34431,
        "meta_element_set_no": 999,
        "meta_rev_at_epoch": 87352,
        "meta_bstar": 0.00084584,
        "meta_mean_motion_dot": 2.161e-05,
        "meta_mean_motion_ddot": 0,
        "tle_line1": "1 34431U 93036RY  25361.41145602  .00002161  00000+0  84584-3 0  9997",
        "tle_line2": "2 34431  74.0743 148.6417 0067577 130.4053 230.3020 14.28827205873525"
      },
      "geometry": {
        "type": "Point",
        "coordinates": [
          -32.75619877158358,
          2.9018069265295297
        ]
      }
    },
    {
      "type": "Feature",
      "properties": {
        "norad_id": 34432,
        "name": "COSMOS 2251 DEB",
        "group": "cosmos-2251-debris",
        "lat": -48.22433176731431,
        "lon": -85.12407891449642,
        "alt_km": 852.9700446161269,
        "timestamp": "2025-12-27T17:24:57.802031+00:00",
        "meta_object_name": "COSMOS 2251 DEB",
        "meta_object_id": "1993-036RZ",
        "meta_epoch": "2025-12-27T04:29:00.465216",
        "meta_mean_motion": 14.02966665,
        "meta_eccentricity": 0.01811034,
        "meta_inclination": 73.8286,
        "meta_ra_of_asc_node": 76.8708,
        "meta_arg_of_pericenter": 157.2588,
        "meta_mean_anomaly": 231.0567,
        "meta_ephemeris_type": 0,
        "meta_classification_type": "U",
        "meta_norad_cat_id": 34432,
        "meta_element_set_no": 999,
        "meta_rev_at_epoch": 85887,
        "meta_bstar": 0.0012687915,
        "meta_mean_motion_dot": 2.251e-05,
        "meta_mean_motion_ddot": 0,
        "tle_line1": "1 34432U 93036RZ  25361.18681094  .00002251  00000+0  12688-2 0  9997",
        "tle_line2": "2 34432  73.8286  76.8708 0181103 157.2588 231.0567 14.02966665858873"
      },
      "geometry": {
        "type": "Point",
        "coordinates": [
          -85.12407891449642,
          -48.22433176731431
        ]
      }
    },
    {
      "type": "Feature",
      "properties": {
        "norad_id": 34433,
        "name": "COSMOS 2251 DEB",
        "group": "cosmos-2251-debris",
        "lat": 63.9780722612717,
        "lon": 164.3642838947617,
        "alt_km": 949.8833211089968,
        "timestamp": "2025-12-27T17:24:57.802041+00:00",
        "meta_object_name": "COSMOS 2251 DEB",
        "meta_object_id": "1993-036SA",
        "meta_epoch": "2025-12-26T08:47:50.388288",
        "meta_mean_motion": 14.12917761,
        "meta_eccentricity": 0.01529044,
        "meta_inclination": 74.0102,
        "meta_ra_of_asc_node": 130.8036,
        "meta_arg_of_pericenter": 266.0106,
        "meta_mean_anomaly": 92.3544,
        "meta_ephemeris_type": 0,
        "meta_classification_type": "U",
        "meta_norad_cat_id": 34433,
        "meta_element_set_no": 999,
        "meta_rev_at_epoch": 86142,
        "meta_bstar": 0.0016772605,
        "meta_mean_motion_dot": 3.465e-05,
        "meta_mean_motion_ddot": 0,
        "tle_line1": "1 34433U 93036SA  25360.36655542  .00003465  00000+0  16773-2 0  9993",
        "tle_line2": "2 34433  74.0102 130.8036 0152904 266.0106  92.3544 14.12917761861423"
      },
      "geometry": {
        "type": "Point",
        "coordinates": [
          164.3642838947617,
          63.9780722612717
        ]
      }
    },
    {
      "type": "Feature",
      "properties": {
        "norad_id": 34434,
        "name": "COSMOS 2251 DEB",
        "group": "cosmos-2251-debris",
        "lat": 19.35717430288051,
        "lon": 158.87413938448557,
        "alt_km": 776.6574146356579,
        "timestamp": "2025-12-27T17:24:57.802052+00:00",
        "meta_object_name": "COSMOS 2251 DEB",
        "meta_object_id": "1993-036SB",
        "meta_epoch": "2025-12-27T08:37:15.748320",
        "meta_mean_motion": 13.89895091,
        "meta_eccentricity": 0.0273388,
        "meta_inclination": 74.0626,
        "meta_ra_of_asc_node": 345.2586,
        "meta_arg_of_pericenter": 118.9799,
        "meta_mean_anomaly": 5.7939,
        "meta_ephemeris_type": 0,
        "meta_classification_type": "U",
        "meta_norad_cat_id": 34434,
        "meta_element_set_no": 999,
        "meta_rev_at_epoch": 84169,
        "meta_bstar": 0.0019829,
        "meta_mean_motion_dot": 3.277e-05,
        "meta_mean_motion_ddot": 0,
        "tle_line1": "1 34434U 93036SB  25361.35921005  .00003277  00000+0  19829-2 0  9990",
        "tle_line2": "2 34434  74.0626 345.2586 0273388 118.9799   5.7939 13.89895091841697"
      },
      "geometry": {
        "type": "Point",
        "coordinates": [
          158.87413938448557,
          19.35717430288051
        ]
      }
    }
  ]
}